[{"OBJECT_NAME":"STARLINK-30515","OBJECT_ID":"2023-151V","EPOCH":"2026-03-09T04:33:05.756544","MEAN_MOTION":15.02535748,"ECCENTRICITY":0.00013484,"INCLINATION":43.0055,"RA_OF_ASC_NODE":354.6324,"ARG_OF_PERICENTER":270.3193,"MEAN_ANOMALY":89.7495,"EPHEMERIS_TYPE":0,"CLASSIFICATION_TYPE":"U","NORAD_CAT_ID":57983,"ELEMENT_SET_NO":999,"REV_AT_EPOCH":13550,"BSTAR":1.2125609e-5,"MEAN_MOTION_DOT":-4.0e-7,"MEAN_MOTION_DDOT":0},{"OBJECT_NAME":"CZ-4B DEB","OBJECT_ID":"1999-057SZ","EPOCH":"2026-03-02T21:23:50.470368","MEAN_MOTION":14.9551257,"ECCENTRICITY":0.0057647,"INCLINATION":98.7518,"RA_OF_ASC_NODE":85.7766,"ARG_OF_PERICENTER":19.8773,"MEAN_ANOMALY":340.4672,"EPHEMERIS_TYPE":0,"CLASSIFICATION_TYPE":"U","NORAD_CAT_ID":39052,"ELEMENT_SET_NO":999,"REV_AT_EPOCH":72291,"BSTAR":0.0001718,"MEAN_MOTION_DOT":1.891e-5,"MEAN_MOTION_DDOT":0}]
